start=new Date('2022-07-08T00:00:00.000Z').valueOf();
sats=[{"DECAY_DATE":null,"RCS_SIZE":"LARGE","CENTER_NAME":"EARTH","EPOCH":"2022-07-07T15:00:17.954784","MEAN_ANOMALY":"301.4690","SEMIMAJOR_AXIS":"6925.331","MEAN_MOTION":"15.06405744","INCLINATION":"53.0544","OBJECT_TYPE":"PAYLOAD","OBJECT_NAME":"STARLINK-2363","PERIOD":"95.592","ARG_OF_PERICENTER":"58.6540","NORAD_CAT_ID":"47903","COUNTRY_CODE":"US","TIME_SYSTEM":"UTC","FILE":"3509470","MEAN_MOTION_DDOT":"0.0000000000000","TLE_LINE2":"2 47903  53.0544 161.8832 0002464  58.6540 301.4690 15.06405744 74548","ECCENTRICITY":"0.00024640","TLE_LINE1":"1 47903U 21021AV  22188.62520781 -.00000221  00000-0  40642-5 0  9998","BSTAR":"0.00000406420000","LAUNCH_DATE":"2021-03-14","REV_AT_EPOCH":"7454","ELEMENT_SET_NO":"999","CLASSIFICATION_TYPE":"U","PERIAPSIS":"545.490","RA_OF_ASC_NODE":"161.8832","REF_FRAME":"TEME","MEAN_ELEMENT_THEORY":"SGP4","MEAN_MOTION_DOT":"-0.00000221","GP_ID":"207629881","APOAPSIS":"548.902","OBJECT_ID":"2021-021AV","SITE":"AFETR","EPHEMERIS_TYPE":"0"},{"ARG_OF_PERICENTER":"67.4940","PERIOD":"95.592","OBJECT_NAME":"STARLINK-2364","COUNTRY_CODE":"US","NORAD_CAT_ID":"47904","MEAN_MOTION_DDOT":"0.0000000000000","FILE":"3509470","TIME_SYSTEM":"UTC","TLE_LINE2":"2 47904  53.0541 161.9121 0001755  67.4940 292.6235 15.06405330 74189","DECAY_DATE":null,"SEMIMAJOR_AXIS":"6925.332","EPOCH":"2022-07-07T14:56:21.012288","CENTER_NAME":"EARTH","MEAN_ANOMALY":"292.6235","RCS_SIZE":"LARGE","INCLINATION":"53.0541","MEAN_MOTION":"15.06405330","OBJECT_TYPE":"PAYLOAD","REF_FRAME":"TEME","MEAN_ELEMENT_THEORY":"SGP4","OBJECT_ID":"2021-021AW","APOAPSIS":"548.413","GP_ID":"207628657","MEAN_MOTION_DOT":"-0.00000272","EPHEMERIS_TYPE":"0","SITE":"AFETR","BSTAR":"0.00000062299000","ECCENTRICITY":"0.00017550","TLE_LINE1":"1 47904U 21021AW  22188.62246542 -.00000272  00000-0  62299-6 0  9998","ELEMENT_SET_NO":"999","REV_AT_EPOCH":"7418","LAUNCH_DATE":"2021-03-14","PERIAPSIS":"545.982","CLASSIFICATION_TYPE":"U","RA_OF_ASC_NODE":"161.9121"},{"DECAY_DATE":null,"EPOCH":"2022-07-07T14:49:41.128032","MEAN_ANOMALY":"296.6367","CENTER_NAME":"EARTH","SEMIMAJOR_AXIS":"6925.365","RCS_SIZE":"LARGE","MEAN_MOTION":"15.06394764","INCLINATION":"53.0532","OBJECT_TYPE":"PAYLOAD","ARG_OF_PERICENTER":"63.4825","PERIOD":"95.592","OBJECT_NAME":"STARLINK-2365","COUNTRY_CODE":"US","NORAD_CAT_ID":"47905","FILE":"3509470","MEAN_MOTION_DDOT":"0.0000000000000","TIME_SYSTEM":"UTC","TLE_LINE2":"2 47905  53.0532 161.9152 0001979  63.4825 296.6367 15.06394764 74313","BSTAR":"-0.00008080900000","ECCENTRICITY":"0.00019790","TLE_LINE1":"1 47905U 21021AX  22188.61783713 -.00001485  00000-0 -80809-4 0  9997","ELEMENT_SET_NO":"999","REV_AT_EPOCH":"7431","LAUNCH_DATE":"2021-03-14","PERIAPSIS":"545.859","CLASSIFICATION_TYPE":"U","RA_OF_ASC_NODE":"161.9152","REF_FRAME":"TEME","MEAN_ELEMENT_THEORY":"SGP4","OBJECT_ID":"2021-021AX","GP_ID":"207628907","MEAN_MOTION_DOT":"-0.00001485","APOAPSIS":"548.600","EPHEMERIS_TYPE":"0","SITE":"AFETR"},{"MEAN_ELEMENT_THEORY":"SGP4","REF_FRAME":"TEME","EPHEMERIS_TYPE":"0","SITE":"AFETR","OBJECT_ID":"2021-021AY","APOAPSIS":"340.903","GP_ID":"207629654","MEAN_MOTION_DOT":"-0.00013605","REV_AT_EPOCH":"7670","ELEMENT_SET_NO":"999","LAUNCH_DATE":"2021-03-14","BSTAR":"-0.00007908300000","ECCENTRICITY":"0.00019360","TLE_LINE1":"1 47906U 21021AY  22188.81433060 -.00013605  00000-0 -79083-4 0  9996","RA_OF_ASC_NODE":"351.6021","PERIAPSIS":"338.302","CLASSIFICATION_TYPE":"U","COUNTRY_CODE":"US","NORAD_CAT_ID":"47906","PERIOD":"91.326","ARG_OF_PERICENTER":"25.5770","OBJECT_NAME":"STARLINK-2366","TLE_LINE2":"2 47906  53.0331 351.6021 0001936  25.5770 334.5345 15.76769489 76705","MEAN_MOTION_DDOT":"0.0000000000000","FILE":"3509470","TIME_SYSTEM":"UTC","SEMIMAJOR_AXIS":"6717.738","MEAN_ANOMALY":"334.5345","CENTER_NAME":"EARTH","EPOCH":"2022-07-07T19:32:38.163840","RCS_SIZE":"LARGE","DECAY_DATE":null,"OBJECT_TYPE":"PAYLOAD","INCLINATION":"53.0331","MEAN_MOTION":"15.76769489"},{"TLE_LINE2":"2 47907  53.0541 181.5898 0001676  58.5128 301.6024 15.06400538 73891","TIME_SYSTEM":"UTC","MEAN_MOTION_DDOT":"0.0000000000000","FILE":"3509470","NORAD_CAT_ID":"47907","COUNTRY_CODE":"US","OBJECT_NAME":"STARLINK-2367","PERIOD":"95.592","ARG_OF_PERICENTER":"58.5128","OBJECT_TYPE":"PAYLOAD","INCLINATION":"53.0541","MEAN_MOTION":"15.06400538","RCS_SIZE":"LARGE","SEMIMAJOR_AXIS":"6925.347","CENTER_NAME":"EARTH","EPOCH":"2022-07-07T16:39:50.974272","MEAN_ANOMALY":"301.6024","DECAY_DATE":null,"SITE":"AFETR","EPHEMERIS_TYPE":"0","APOAPSIS":"548.373","GP_ID":"207630382","MEAN_MOTION_DOT":"0.00001101","OBJECT_ID":"2021-021AZ","MEAN_ELEMENT_THEORY":"SGP4","REF_FRAME":"TEME","RA_OF_ASC_NODE":"181.5898","CLASSIFICATION_TYPE":"U","PERIAPSIS":"546.051","LAUNCH_DATE":"2021-03-14","REV_AT_EPOCH":"7389","ELEMENT_SET_NO":"999","ECCENTRICITY":"0.00016760","TLE_LINE1":"1 47907U 21021AZ  22188.69433998  .00001101  00000-0  92777-4 0  9994","BSTAR":"0.00009277700000"},{"PERIAPSIS":"546.007","CLASSIFICATION_TYPE":"U","RA_OF_ASC_NODE":"183.0507","BSTAR":"0.00001101700000","ECCENTRICITY":"0.00017650","TLE_LINE1":"1 47908U 21021BA  22188.36998885 -.00000118  00000-0  11017-4 0  9996","ELEMENT_SET_NO":"999","REV_AT_EPOCH":"7387","LAUNCH_DATE":"2021-03-14","OBJECT_ID":"2021-021BA","APOAPSIS":"548.452","MEAN_MOTION_DOT":"-0.00000118","GP_ID":"207599202","EPHEMERIS_TYPE":"0","SITE":"AFETR","REF_FRAME":"TEME","MEAN_ELEMENT_THEORY":"SGP4","INCLINATION":"53.0540","MEAN_MOTION":"15.06394804","OBJECT_TYPE":"PAYLOAD","DECAY_DATE":null,"SEMIMAJOR_AXIS":"6925.364","CENTER_NAME":"EARTH","EPOCH":"2022-07-07T08:52:47.036640","MEAN_ANOMALY":"291.6532","RCS_SIZE":"LARGE","MEAN_MOTION_DDOT":"0.0000000000000","FILE":"3509293","TIME_SYSTEM":"UTC","TLE_LINE2":"2 47908  53.0540 183.0507 0001765  68.4645 291.6532 15.06394804 73876","PERIOD":"95.592","ARG_OF_PERICENTER":"68.4645","OBJECT_NAME":"STARLINK-2368","COUNTRY_CODE":"US","NORAD_CAT_ID":"47908"},{"MEAN_MOTION_DDOT":"0.0000000000000","FILE":"3509470","TIME_SYSTEM":"UTC","TLE_LINE2":"2 47909  53.0546 171.7858 0001659  60.3395 299.7759 15.06402684 74227","ARG_OF_PERICENTER":"60.3395","PERIOD":"95.592","OBJECT_NAME":"STARLINK-2369","COUNTRY_CODE":"US","NORAD_CAT_ID":"47909","INCLINATION":"53.0546","MEAN_MOTION":"15.06402684","OBJECT_TYPE":"PAYLOAD","DECAY_DATE":null,"SEMIMAJOR_AXIS":"6925.340","CENTER_NAME":"EARTH","MEAN_ANOMALY":"299.7759","EPOCH":"2022-07-07T15:37:29.303904","RCS_SIZE":"LARGE","OBJECT_ID":"2021-021BB","APOAPSIS":"548.354","MEAN_MOTION_DOT":"0.00001406","GP_ID":"207629408","EPHEMERIS_TYPE":"0","SITE":"AFETR","REF_FRAME":"TEME","MEAN_ELEMENT_THEORY":"SGP4","PERIAPSIS":"546.056","CLASSIFICATION_TYPE":"U","RA_OF_ASC_NODE":"171.7858","BSTAR":"0.00011325000000","ECCENTRICITY":"0.00016590","TLE_LINE1":"1 47909U 21021BB  22188.65103361  .00001406  00000-0  11325-3 0  9997","REV_AT_EPOCH":"7422","ELEMENT_SET_NO":"999","LAUNCH_DATE":"2021-03-14"},{"ARG_OF_PERICENTER":"65.0723","PERIOD":"95.593","OBJECT_NAME":"STARLINK-2370","COUNTRY_CODE":"US","NORAD_CAT_ID":"47910","FILE":"3509470","MEAN_MOTION_DDOT":"0.0000000000000","TIME_SYSTEM":"UTC","TLE_LINE2":"2 47910  53.0554 171.6237 0001702  65.0723 295.0443 15.06392307 74087","DECAY_DATE":null,"EPOCH":"2022-07-07T16:29:12.906816","CENTER_NAME":"EARTH","MEAN_ANOMALY":"295.0443","SEMIMAJOR_AXIS":"6925.372","RCS_SIZE":"LARGE","MEAN_MOTION":"15.06392307","INCLINATION":"53.0554","OBJECT_TYPE":"PAYLOAD","REF_FRAME":"TEME","MEAN_ELEMENT_THEORY":"SGP4","OBJECT_ID":"2021-021BC","MEAN_MOTION_DOT":"-0.00000919","GP_ID":"207630155","APOAPSIS":"548.416","EPHEMERIS_TYPE":"0","SITE":"AFETR","BSTAR":"-0.00004282000000","ECCENTRICITY":"0.00017020","TLE_LINE1":"1 47910U 21021BC  22188.68695494 -.00000919  00000-0 -42820-4 0  9990","REV_AT_EPOCH":"7408","ELEMENT_SET_NO":"999","LAUNCH_DATE":"2021-03-14","PERIAPSIS":"546.058","CLASSIFICATION_TYPE":"U","RA_OF_ASC_NODE":"171.6237"},{"TLE_LINE1":"1 47911U 21021BD  22188.70313905 -.00000472  00000-0 -12765-4 0  9997","ECCENTRICITY":"0.00016670","BSTAR":"-0.00001276500000","LAUNCH_DATE":"2021-03-14","ELEMENT_SET_NO":"999","REV_AT_EPOCH":"7370","CLASSIFICATION_TYPE":"U","PERIAPSIS":"546.062","RA_OF_ASC_NODE":"186.7851","REF_FRAME":"TEME","MEAN_ELEMENT_THEORY":"SGP4","APOAPSIS":"548.371","MEAN_MOTION_DOT":"-0.00000472","GP_ID":"207629882","OBJECT_ID":"2021-021BD","SITE":"AFETR","EPHEMERIS_TYPE":"0","DECAY_DATE":null,"RCS_SIZE":"LARGE","SEMIMAJOR_AXIS":"6925.352","EPOCH":"2022-07-07T16:52:31.213920","MEAN_ANOMALY":"295.2974","CENTER_NAME":"EARTH","INCLINATION":"53.0540","MEAN_MOTION":"15.06398978","OBJECT_TYPE":"PAYLOAD","OBJECT_NAME":"STARLINK-2371","ARG_OF_PERICENTER":"64.8188","PERIOD":"95.592","NORAD_CAT_ID":"47911","COUNTRY_CODE":"US","TIME_SYSTEM":"UTC","MEAN_MOTION_DDOT":"0.0000000000000","FILE":"3509470","TLE_LINE2":"2 47911  53.0540 186.7851 0001667  64.8188 295.2974 15.06398978 73703"},{"CLASSIFICATION_TYPE":"U","PERIAPSIS":"545.945","RA_OF_ASC_NODE":"171.6420","TLE_LINE1":"1 47912U 21021BE  22188.67958283 -.00000762  00000-0 -32257-4 0  9998","ECCENTRICITY":"0.00018380","BSTAR":"-0.00003225700000","LAUNCH_DATE":"2021-03-14","ELEMENT_SET_NO":"999","REV_AT_EPOCH":"7391","APOAPSIS":"548.491","GP_ID":"207628658","MEAN_MOTION_DOT":"-0.00000762","OBJECT_ID":"2021-021BE","SITE":"AFETR","EPHEMERIS_TYPE":"0","REF_FRAME":"TEME","MEAN_ELEMENT_THEORY":"SGP4","INCLINATION":"53.0549","MEAN_MOTION":"15.06398565","OBJECT_TYPE":"PAYLOAD","DECAY_DATE":null,"RCS_SIZE":"LARGE","SEMIMAJOR_AXIS":"6925.353","EPOCH":"2022-07-07T16:18:35.956512","MEAN_ANOMALY":"305.5195","CENTER_NAME":"EARTH","TIME_SYSTEM":"UTC","MEAN_MOTION_DDOT":"0.0000000000000","FILE":"3509470","TLE_LINE2":"2 47912  53.0549 171.6420 0001838  54.5965 305.5195 15.06398565 73912","OBJECT_NAME":"STARLINK-2372","ARG_OF_PERICENTER":"54.5965","PERIOD":"95.592","NORAD_CAT_ID":"47912","COUNTRY_CODE":"US"}];
